$$SOE
2461302.500000000, A.D. 2026-Sep-19 00:00:00.0000, -1.850777200035397E+08, -2.266473386214786E+08, -1.730778270939575E+07,
2461309.500000000, A.D. 2026-Sep-26 00:00:00.0000, -1.732576321988836E+08, -2.335355651932153E+08, -1.807021415941986E+07,
2461316.500000000, A.D. 2026-Oct-03 00:00:00.0000, -1.610975786806806E+08, -2.399654268598340E+08, -1.879717583768308E+07,
2461323.500000000, A.D. 2026-Oct-10 00:00:00.0000, -1.486157905406241E+08, -2.459159173471397E+08, -1.948658375618689E+07,
2461330.500000000, A.D. 2026-Oct-17 00:00:00.0000, -1.358320991677777E+08, -2.513667149674215E+08, -2.013639210917817E+07,
2461337.500000000, A.D. 2026-Oct-24 00:00:00.0000, -1.227679280263918E+08, -2.562983298150775E+08, -2.074460625527142E+07,
2461344.500000000, A.D. 2026-Oct-31 00:00:00.0000, -1.094462688130034E+08, -2.606922554989356E+08, -2.130929631470487E+07,
2461351.500000000, A.D. 2026-Nov-07 00:00:00.0000, -9.589164046326157E+07, -2.645311235183411E+08, -2.182861126353215E+07,
2461358.500000000, A.D. 2026-Nov-14 00:00:00.0000, -8.213002984307680E+07, -2.677988573129662E+08, -2.230079330125318E+07,
2461365.500000000, A.D. 2026-Nov-21 00:00:00.0000, -6.818881525531994E+07, -2.704808229839705E+08, -2.272419207588565E+07,
2461372.500000000, A.D. 2026-Nov-28 00:00:00.0000, -5.409667341710941E+07, -2.725639771783066E+08, -2.309727870515010E+07,
2461379.500000000, A.D. 2026-Dec-05 00:00:00.0000, -3.988346633399156E+07, -2.740370101418821E+08, -2.341865974706353E+07,
2461386.500000000, A.D. 2026-Dec-12 00:00:00.0000, -2.558010838343848E+07, -2.748904781109434E+08, -2.368709063649397E+07,
2461393.500000000, A.D. 2026-Dec-19 00:00:00.0000, -1.121841642784254E+07, -2.751169223182408E+08, -2.390148816354367E+07,
2461400.500000000, A.D. 2026-Dec-26 00:00:00.0000, 3.169055502339908E+06, -2.747109728546968E+08, -2.406094180260329E+07,
2461407.500000000, A.D. 2027-Jan-02 00:00:00.0000, 1.754919537310204E+07, -2.736694351307684E+08, -2.416472369339758E+07,
2461414.500000000, A.D. 2027-Jan-09 00:00:00.0000, 3.188852398563314E+07, -2.719913567387928E+08, -2.421229706114046E+07,
2461421.500000000, A.D. 2027-Jan-16 00:00:00.0000, 4.615339485284642E+07, -2.696780728840111E+08, -2.420332288280542E+07,
2461428.500000000, A.D. 2027-Jan-23 00:00:00.0000, 6.031020017278367E+07, -2.667332290394606E+08, -2.413766464614098E+07,
2461435.500000000, A.D. 2027-Jan-30 00:00:00.0000, 7.432557986123984E+07, -2.631627799906541E+08, -2.401539110209703E+07,
2461442.500000000, A.D. 2027-Feb-06 00:00:00.0000, 8.816663069882955E+07, -2.589749645868417E+08, -2.383677694593330E+07,
2461449.500000000, A.D. 2027-Feb-13 00:00:00.0000, 1.018011117267510E+08, -2.541802551934994E+08, -2.360230125741218E+07,
2461456.500000000, A.D. 2027-Feb-20 00:00:00.0000, 1.151976401951771E+08, -2.487912834078695E+08, -2.331264357015693E+07,
2461463.500000000, A.D. 2027-Feb-27 00:00:00.0000, 1.283258763090504E+08, -2.428227465561894E+08, -2.296867803276080E+07,
2461470.500000000, A.D. 2027-Mar-06 00:00:00.0000, 1.411566969191033E+08, -2.362912948521917E+08, -2.257146590075363E+07,
2461477.500000000, A.D. 2027-Mar-13 00:00:00.0000, 1.536623540499541E+08, -2.292153994018353E+08, -2.212224620699435E+07,
2461484.500000000, A.D. 2027-Mar-20 00:00:00.0000, 1.658166150576399E+08, -2.216152044681310E+08, -2.162242477278274E+07,
2461491.500000000, A.D. 2027-Mar-27 00:00:00.0000, 1.775948830209155E+08, -2.135123673772977E+08, -2.107356184942140E+07,
2461498.500000000, A.D. 2027-Apr-03 00:00:00.0000, 1.889742964798030E+08, -2.049298891045559E+08, -2.047735865961720E+07,
2461505.500000000, A.D. 2027-Apr-10 00:00:00.0000, 1.999338080042806E+08, -1.958919385687474E+08, -1.983564310094996E+07,
2461512.500000000, A.D. 2027-Apr-17 00:00:00.0000, 2.104542415258698E+08, -1.864236736672815E+08, -1.915035487558225E+07,
2461519.500000000, A.D. 2027-Apr-24 00:00:00.0000, 2.205183288730285E+08, -1.765510619990798E+08, -1.842353031369782E+07,
2461526.500000000, A.D. 2027-May-01 00:00:00.0000, 2.301107265867665E+08, -1.663007039187941E+08, -1.765728715907687E+07,
2461533.500000000, A.D. 2027-May-08 00:00:00.0000, 2.392180144779715E+08, -1.556996595825112E+08, -1.685380951131320E+07,
2461540.500000000, A.D. 2027-May-15 00:00:00.0000, 2.478286758971324E+08, -1.447752811514684E+08, -1.601533291768191E+07,
2461547.500000000, A.D. 2027-May-22 00:00:00.0000, 2.559330598483916E+08, -1.335550545501041E+08, -1.514412986675628E+07,
2461554.500000000, A.D. 2027-May-29 00:00:00.0000, 2.635233301460433E+08, -1.220664537148722E+08, -1.424249626571244E+07,
2461561.500000000, A.D. 2027-Jun-05 00:00:00.0000, 2.705934044204133E+08, -1.103368053281089E+08, -1.331273884951416E+07,
2461568.500000000, A.D. 2027-Jun-12 00:00:00.0000, 2.771388829084716E+08, -9.839316439465281E+07, -1.235716339579992E+07,
2461575.500000000, A.D. 2027-Jun-19 00:00:00.0000, 2.831569686121526E+08, -8.626220206707980E+07, -1.137806385729927E+07,
2461582.500000000, A.D. 2027-Jun-26 00:00:00.0000, 2.886463809487048E+08, -7.397010616477634E+07, -1.037771249935205E+07,
2461589.500000000, A.D. 2027-Jul-03 00:00:00.0000, 2.936072647664023E+08, -6.154249431248678E+07, -9.358351071683064E+06,
2461596.500000000, A.D. 2027-Jul-10 00:00:00.0000, 2.980410963724154E+08, -4.900433941110725E+07, -8.322183014499344E+06,
2461603.500000000, A.D. 2027-Jul-17 00:00:00.0000, 3.019505880683938E+08, -3.637990702638066E+07, -7.271366685375966E+06,
2461610.500000000, A.D. 2027-Jul-24 00:00:00.0000, 3.053395926444173E+08, -2.369270416749866E+07, -6.208009592130681E+06,
2461617.500000000, A.D. 2027-Jul-31 00:00:00.0000, 3.082130093620254E+08, -1.096543852232509E+07, -5.134163604691813E+06,
2461624.500000000, A.D. 2027-Aug-07 00:00:00.0000, 3.105766921792804E+08, 1.780013782917931E+06, -4.051820978537912E+06,
2461631.500000000, A.D. 2027-Aug-14 00:00:00.0000, 3.124373587255124E+08, 1.452263247033209E+07, -2.962910937491600E+06,
2461638.500000000, A.D. 2027-Aug-21 00:00:00.0000, 3.138025012966717E+08, 2.724226691370733E+07, -1.869297082812772E+06,
2461645.500000000, A.D. 2027-Aug-28 00:00:00.0000, 3.146803037986206E+08, 3.991964150198010E+07, -7.727757787704580E+05,
2461652.500000000, A.D. 2027-Sep-04 00:00:00.0000, 3.150795638288381E+08, 5.253635589565033E+07, 3.249248652982377E+05,
2461659.500000000, A.D. 2027-Sep-11 00:00:00.0000, 3.150096187647831E+08, 6.507488031461215E+07, 1.422145556707188E+06,
2461666.500000000, A.D. 2027-Sep-18 00:00:00.0000, 3.144802761557598E+08, 7.751854596562794E+07, 2.517295923730589E+06,
2461673.500000000, A.D. 2027-Sep-25 00:00:00.0000, 3.135017487232873E+08, 8.985153124248184E+07, 3.608854196393590E+06,
2461680.500000000, A.D. 2027-Oct-02 00:00:00.0000, 3.120845940467066E+08, 1.020588443845504E+08, 4.695366516796090E+06,
2461687.500000000, A.D. 2027-Oct-09 00:00:00.0000, 3.102396588956327E+08, 1.141263031926915E+08, 5.775445930187792E+06,
2461694.500000000, A.D. 2027-Oct-16 00:00:00.0000, 3.079780281607703E+08, 1.260405122965259E+08, 6.847771095797092E+06,
2461701.500000000, A.D. 2027-Oct-23 00:00:00.0000, 3.053109784924127E+08, 1.377888384628989E+08, 7.911084737773731E+06,
2461708.500000000, A.D. 2027-Oct-30 00:00:00.0000, 3.022499368396744E+08, 1.493593849974408E+08, 8.964191891458452E+06,
2461715.500000000, A.D. 2027-Nov-06 00:00:00.0000, 2.988064425190786E+08, 1.607409667616376E+08, 1.000595817959917E+07,
2461722.500000000, A.D. 2027-Nov-13 00:00:00.0000, 2.949921106160749E+08, 1.719230840851836E+08, 1.103530816479987E+07,
2461729.500000000, A.D. 2027-Nov-20 00:00:00.0000, 2.908185994145364E+08, 1.828958936905193E+08, 1.205122336332887E+07,
2461736.500000000, A.D. 2027-Nov-27 00:00:00.0000, 2.862975832490034E+08, 1.936501798450503E+08, 1.305274003933911E+07,
2461743.500000000, A.D. 2027-Dec-04 00:00:00.0000, 2.814407285274462E+08, 2.041773268709667E+08, 1.403894706221572E+07,
2461750.500000000, A.D. 2027-Dec-11 00:00:00.0000, 2.762596721501732E+08, 2.144692922318903E+08, 1.500898381841557E+07,
2461757.500000000, A.D. 2027-Dec-18 00:00:00.0000, 2.707660023811966E+08, 2.245185800094606E+08, 1.596203814153609E+07,
2461764.500000000, A.D. 2027-Dec-25 00:00:00.0000, 2.649712421120181E+08, 2.343182148929136E+08, 1.689734426054488E+07,
2461771.500000000, A.D. 2028-Jan-01 00:00:00.0000, 2.588868343561371E+08, 2.438617167979023E+08, 1.781418077539317E+07,
$$EOE